ALOS-4 (DAICHI-4)       
1 60182U 24123A   24270.03775303  .00006618  00000+0  89203-3 0  9997
2 60182  97.9207   5.2449 0001521 100.3905 259.7478 14.79482789 12851
